start=new Date('2023-05-03T00:00:00.000Z').valueOf();
sats=[{"TLE_LINE1":"1 47573U 21009AB  23122.86638256  .00018805  00000-0  12772-2 0  9995","INCLINATION":"53.0559","REV_AT_EPOCH":"12390","ELEMENT_SET_NO":"999","FILE":"3899277","TIME_SYSTEM":"UTC","SEMIMAJOR_AXIS":"6925.280","CENTER_NAME":"EARTH","ECCENTRICITY":"0.00010820","OBJECT_TYPE":"PAYLOAD","PERIAPSIS":"546.395","APOAPSIS":"547.894","EPOCH":"2023-05-02T20:47:35.453184","MEAN_ANOMALY":"277.3001","RA_OF_ASC_NODE":"8.5447","DECAY_DATE":null,"LAUNCH_DATE":"2021-02-04","PERIOD":"95.591","COUNTRY_CODE":"US","NORAD_CAT_ID":"47573","CLASSIFICATION_TYPE":"U","REF_FRAME":"TEME","MEAN_ELEMENT_THEORY":"SGP4","BSTAR":"0.00127720000000","SITE":"AFETR","TLE_LINE2":"2 47573  53.0559   8.5447 0001082  82.8111 277.3001 15.06422431123908","EPHEMERIS_TYPE":"0","GP_ID":"231122082","ARG_OF_PERICENTER":"82.8111","RCS_SIZE":"LARGE","MEAN_MOTION_DOT":"0.00018805","MEAN_MOTION_DDOT":"0.0000000000000","OBJECT_NAME":"STARLINK-1975","MEAN_MOTION":"15.06422431","OBJECT_ID":"2021-009AB"},{"FILE":"3899277","ELEMENT_SET_NO":"999","INCLINATION":"53.0547","REV_AT_EPOCH":"12347","TLE_LINE1":"1 47574U 21009AC  23122.81569927  .00018957  00000-0  12874-2 0  9990","CENTER_NAME":"EARTH","SEMIMAJOR_AXIS":"6925.285","TIME_SYSTEM":"UTC","OBJECT_TYPE":"PAYLOAD","ECCENTRICITY":"0.00012110","EPOCH":"2023-05-02T19:34:36.416928","APOAPSIS":"547.988","PERIAPSIS":"546.311","BSTAR":"0.00128740000000","MEAN_ELEMENT_THEORY":"SGP4","REF_FRAME":"TEME","CLASSIFICATION_TYPE":"U","NORAD_CAT_ID":"47574","COUNTRY_CODE":"US","DECAY_DATE":null,"PERIOD":"95.591","LAUNCH_DATE":"2021-02-04","RA_OF_ASC_NODE":"38.7722","MEAN_ANOMALY":"274.7321","GP_ID":"231122090","ARG_OF_PERICENTER":"85.3806","TLE_LINE2":"2 47574  53.0547  38.7722 0001211  85.3806 274.7321 15.06420819123476","SITE":"AFETR","EPHEMERIS_TYPE":"0","MEAN_MOTION_DOT":"0.00018957","RCS_SIZE":"LARGE","OBJECT_ID":"2021-009AC","MEAN_MOTION":"15.06420819","OBJECT_NAME":"STARLINK-1976","MEAN_MOTION_DDOT":"0.0000000000000"},{"GP_ID":"231122340","ARG_OF_PERICENTER":"100.7760","TLE_LINE2":"2 47575  53.0550  39.1159 0001046 100.7760 259.3347 15.06413919123466","EPHEMERIS_TYPE":"0","SITE":"AFETR","CLASSIFICATION_TYPE":"U","NORAD_CAT_ID":"47575","REF_FRAME":"TEME","MEAN_ELEMENT_THEORY":"SGP4","BSTAR":"0.00115670000000","MEAN_ANOMALY":"259.3347","LAUNCH_DATE":"2021-02-04","DECAY_DATE":null,"RA_OF_ASC_NODE":"39.1159","PERIOD":"95.591","COUNTRY_CODE":"US","MEAN_MOTION":"15.06413919","OBJECT_ID":"2021-009AD","MEAN_MOTION_DDOT":"0.0000000000000","OBJECT_NAME":"STARLINK-1977","RCS_SIZE":"LARGE","MEAN_MOTION_DOT":"0.00016996","TIME_SYSTEM":"UTC","SEMIMAJOR_AXIS":"6925.306","CENTER_NAME":"EARTH","INCLINATION":"53.0550","REV_AT_EPOCH":"12346","ELEMENT_SET_NO":"999","FILE":"3899277","TLE_LINE1":"1 47575U 21009AD  23122.73829585  .00016996  00000-0  11567-2 0  9990","APOAPSIS":"547.895","EPOCH":"2023-05-02T17:43:08.761440","PERIAPSIS":"546.447","ECCENTRICITY":"0.00010460","OBJECT_TYPE":"PAYLOAD"},{"CLASSIFICATION_TYPE":"U","NORAD_CAT_ID":"47576","BSTAR":"0.00096034000000","MEAN_ELEMENT_THEORY":"SGP4","REF_FRAME":"TEME","LAUNCH_DATE":"2021-02-04","DECAY_DATE":null,"RA_OF_ASC_NODE":"358.3718","PERIOD":"95.591","MEAN_ANOMALY":"278.1985","COUNTRY_CODE":"US","GP_ID":"231122591","ARG_OF_PERICENTER":"81.9128","SITE":"AFETR","TLE_LINE2":"2 47576  53.0538 358.3718 0001093  81.9128 278.1985 15.06415650124057","EPHEMERIS_TYPE":"0","RCS_SIZE":"LARGE","MEAN_MOTION_DOT":"0.00014058","OBJECT_ID":"2021-009AE","MEAN_MOTION":"15.06415650","MEAN_MOTION_DDOT":"0.0000000000000","OBJECT_NAME":"STARLINK-1978","ELEMENT_SET_NO":"999","INCLINATION":"53.0538","REV_AT_EPOCH":"12405","FILE":"3899277","TLE_LINE1":"1 47576U 21009AE  23122.90416509  .00014058  00000-0  96034-3 0  9998","TIME_SYSTEM":"UTC","CENTER_NAME":"EARTH","SEMIMAJOR_AXIS":"6925.301","ECCENTRICITY":"0.00010930","OBJECT_TYPE":"PAYLOAD","APOAPSIS":"547.923","EPOCH":"2023-05-02T21:41:59.863776","PERIAPSIS":"546.409"},{"APOAPSIS":"547.872","EPOCH":"2023-05-02T21:05:30.372864","PERIAPSIS":"546.395","ECCENTRICITY":"0.00010660","OBJECT_TYPE":"PAYLOAD","TIME_SYSTEM":"UTC","CENTER_NAME":"EARTH","SEMIMAJOR_AXIS":"6925.268","ELEMENT_SET_NO":"999","REV_AT_EPOCH":"12384","INCLINATION":"53.0548","FILE":"3899277","TLE_LINE1":"1 47577U 21009AF  23122.87882376  .00023750  00000-0  16068-2 0  9991","OBJECT_ID":"2021-009AF","MEAN_MOTION":"15.06426178","MEAN_MOTION_DDOT":"0.0000000000000","OBJECT_NAME":"STARLINK-1979","MEAN_MOTION_DOT":"0.00023750","RCS_SIZE":"LARGE","GP_ID":"231121582","ARG_OF_PERICENTER":"95.6793","SITE":"AFETR","TLE_LINE2":"2 47577  53.0548  13.4869 0001066  95.6793 264.4317 15.06426178123845","EPHEMERIS_TYPE":"0","CLASSIFICATION_TYPE":"U","NORAD_CAT_ID":"47577","MEAN_ELEMENT_THEORY":"SGP4","BSTAR":"0.00160680000000","REF_FRAME":"TEME","LAUNCH_DATE":"2021-02-04","DECAY_DATE":null,"RA_OF_ASC_NODE":"13.4869","PERIOD":"95.590","MEAN_ANOMALY":"264.4317","COUNTRY_CODE":"US"},{"FILE":"3899277","INCLINATION":"53.0561","REV_AT_EPOCH":"12376","ELEMENT_SET_NO":"999","TLE_LINE1":"1 47578U 21009AG  23122.87283258  .00021599  00000-0  14634-2 0  9992","SEMIMAJOR_AXIS":"6925.266","CENTER_NAME":"EARTH","TIME_SYSTEM":"UTC","OBJECT_TYPE":"PAYLOAD","ECCENTRICITY":"0.00009160","EPOCH":"2023-05-02T20:56:52.734912","APOAPSIS":"547.765","PERIAPSIS":"546.497","REF_FRAME":"TEME","MEAN_ELEMENT_THEORY":"SGP4","BSTAR":"0.00146340000000","CLASSIFICATION_TYPE":"U","NORAD_CAT_ID":"47578","COUNTRY_CODE":"US","MEAN_ANOMALY":"261.0640","DECAY_DATE":null,"LAUNCH_DATE":"2021-02-04","RA_OF_ASC_NODE":"18.5125","PERIOD":"95.590","ARG_OF_PERICENTER":"99.0453","GP_ID":"231121590","TLE_LINE2":"2 47578  53.0561  18.5125 0000916  99.0453 261.0640 15.06426941123767","SITE":"AFETR","EPHEMERIS_TYPE":"0","RCS_SIZE":"LARGE","MEAN_MOTION_DOT":"0.00021599","MEAN_MOTION":"15.06426941","OBJECT_ID":"2021-009AG","OBJECT_NAME":"STARLINK-1980","MEAN_MOTION_DDOT":"0.0000000000000"},{"DECAY_DATE":null,"PERIOD":"95.590","LAUNCH_DATE":"2021-02-04","RA_OF_ASC_NODE":"8.5937","MEAN_ANOMALY":"255.0177","COUNTRY_CODE":"US","CLASSIFICATION_TYPE":"U","NORAD_CAT_ID":"47579","MEAN_ELEMENT_THEORY":"SGP4","BSTAR":"0.00152980000000","REF_FRAME":"TEME","TLE_LINE2":"2 47579  53.0555   8.5937 0001222 105.0948 255.0177 15.06432611123904","SITE":"AFETR","EPHEMERIS_TYPE":"0","GP_ID":"231121840","ARG_OF_PERICENTER":"105.0948","RCS_SIZE":"LARGE","MEAN_MOTION_DOT":"0.00022598","MEAN_MOTION_DDOT":"0.0000000000000","OBJECT_NAME":"STARLINK-1981","OBJECT_ID":"2021-009AH","MEAN_MOTION":"15.06432611","TLE_LINE1":"1 47579U 21009AH  23122.85532497  .00022598  00000-0  15298-2 0  9990","ELEMENT_SET_NO":"999","INCLINATION":"53.0555","REV_AT_EPOCH":"12390","FILE":"3899277","TIME_SYSTEM":"UTC","CENTER_NAME":"EARTH","SEMIMAJOR_AXIS":"6925.249","ECCENTRICITY":"0.00012220","OBJECT_TYPE":"PAYLOAD","PERIAPSIS":"546.267","APOAPSIS":"547.960","EPOCH":"2023-05-02T20:31:40.077408"},{"RCS_SIZE":"LARGE","MEAN_MOTION_DOT":"0.00021467","OBJECT_ID":"2021-009AJ","MEAN_MOTION":"15.06419109","MEAN_MOTION_DDOT":"0.0000000000000","OBJECT_NAME":"STARLINK-1982","NORAD_CAT_ID":"47580","CLASSIFICATION_TYPE":"U","MEAN_ELEMENT_THEORY":"SGP4","BSTAR":"0.00145490000000","REF_FRAME":"TEME","PERIOD":"95.591","DECAY_DATE":null,"LAUNCH_DATE":"2021-02-04","RA_OF_ASC_NODE":"18.5031","MEAN_ANOMALY":"267.5926","COUNTRY_CODE":"US","GP_ID":"231123092","ARG_OF_PERICENTER":"92.5198","SITE":"AFETR","TLE_LINE2":"2 47580  53.0560  18.5031 0001181  92.5198 267.5926 15.06419109123760","EPHEMERIS_TYPE":"0","ECCENTRICITY":"0.00011810","OBJECT_TYPE":"PAYLOAD","APOAPSIS":"547.973","EPOCH":"2023-05-02T21:02:11.381568","PERIAPSIS":"546.337","ELEMENT_SET_NO":"999","INCLINATION":"53.0560","REV_AT_EPOCH":"12376","FILE":"3899277","TLE_LINE1":"1 47580U 21009AJ  23122.87652062  .00021467  00000-0  14549-2 0  9997","TIME_SYSTEM":"UTC","CENTER_NAME":"EARTH","SEMIMAJOR_AXIS":"6925.290"},{"TIME_SYSTEM":"UTC","CENTER_NAME":"EARTH","SEMIMAJOR_AXIS":"6925.269","TLE_LINE1":"1 47581U 21009AK  23122.85624449  .00016775  00000-0  11416-2 0  9990","ELEMENT_SET_NO":"999","INCLINATION":"53.0548","REV_AT_EPOCH":"12404","FILE":"3899277","PERIAPSIS":"546.293","APOAPSIS":"547.975","EPOCH":"2023-05-02T20:32:59.523936","ECCENTRICITY":"0.00012140","OBJECT_TYPE":"PAYLOAD","SITE":"AFETR","TLE_LINE2":"2 47581  53.0548 358.5886 0001214 122.2929 237.8178 15.06425928124049","EPHEMERIS_TYPE":"0","ARG_OF_PERICENTER":"122.2929","GP_ID":"231122835","DECAY_DATE":null,"PERIOD":"95.590","LAUNCH_DATE":"2021-02-04","RA_OF_ASC_NODE":"358.5886","MEAN_ANOMALY":"237.8178","COUNTRY_CODE":"US","NORAD_CAT_ID":"47581","CLASSIFICATION_TYPE":"U","MEAN_ELEMENT_THEORY":"SGP4","BSTAR":"0.00114160000000","REF_FRAME":"TEME","MEAN_MOTION_DDOT":"0.0000000000000","OBJECT_NAME":"STARLINK-1984","OBJECT_ID":"2021-009AK","MEAN_MOTION":"15.06425928","MEAN_MOTION_DOT":"0.00016775","RCS_SIZE":"LARGE"},{"TLE_LINE1":"1 47582U 21009AL  23122.90969425  .00018391  00000-0  12488-2 0  9999","FILE":"3899277","REV_AT_EPOCH":"12377","INCLINATION":"53.0550","ELEMENT_SET_NO":"999","SEMIMAJOR_AXIS":"6925.210","CENTER_NAME":"EARTH","TIME_SYSTEM":"UTC","OBJECT_TYPE":"PAYLOAD","ECCENTRICITY":"0.00014050","PERIAPSIS":"546.102","EPOCH":"2023-05-02T21:49:57.583200","APOAPSIS":"548.048","COUNTRY_CODE":"US","MEAN_ANOMALY":"257.1861","LAUNCH_DATE":"2021-02-04","DECAY_DATE":null,"RA_OF_ASC_NODE":"18.3497","PERIOD":"95.589","REF_FRAME":"TEME","MEAN_ELEMENT_THEORY":"SGP4","BSTAR":"0.00124880000000","NORAD_CAT_ID":"47582","CLASSIFICATION_TYPE":"U","TLE_LINE2":"2 47582  53.0550  18.3497 0001405 102.9285 257.1861 15.06445309123772","EPHEMERIS_TYPE":"0","SITE":"AFETR","GP_ID":"231122091","ARG_OF_PERICENTER":"102.9285","MEAN_MOTION_DOT":"0.00018391","RCS_SIZE":"LARGE","OBJECT_NAME":"STARLINK-1986","MEAN_MOTION_DDOT":"0.0000000000000","MEAN_MOTION":"15.06445309","OBJECT_ID":"2021-009AL"}];
